{"type": "FeatureCollection", "features": [ {"type": "Feature", "properties": {"norad_id": 31880, "name": "FENGYUN 1C DEB", "group": "fengyun-1c-debris", "lat": 21.81952758518013, "lon": -16.2415328669303, "alt_km": 849.4338614200833, "timestamp": "2025-12-22T04:03:39.453885+00:00", "meta": {"OBJECT_NAME": "FENGYUN 1C DEB", "OBJECT_ID": "1999-025CKF", "EPOCH": "2025-12-11T16:42:46.632384", "MEAN_MOTION": 13.89397693, "ECCENTRICITY": 0.01281078, "INCLINATION": 100.0286, "RA_OF_ASC_NODE": 148.4273, "ARG_OF_PERICENTER": 154.5547, "MEAN_ANOMALY": 206.199, "EPHEMERIS_TYPE": 0, "CLASSIFICATION_TYPE": "U", "NORAD_CAT_ID": 31880, "ELEMENT_SET_NO": 999, "REV_AT_EPOCH": 62965, "BSTAR": 0.00070027147, "MEAN_MOTION_DOT": 8.62e-06, "MEAN_MOTION_DDOT": 0}, "tle": {"line1": "1 31880U 99025CKF 25345.69637306  .00000862  00000+0  70027-3 0  9998", "line2": "2 31880 100.0286 148.4273 0128107 154.5547 206.1990 13.89397693629651"}}, "geometry": {"type": "Point", "coordinates": [-16.2415328669303, 21.81952758518013]}}, {"type": "Feature", "properties": {"norad_id": 31882, "name": "FENGYUN 1C DEB", "group": "fengyun-1c-debris", "lat": 7.200692633230657, "lon": 99.79735745444142, "alt_km": 827.9151484614076, "timestamp": "2025-12-22T04:03:39.453896+00:00", "meta": {"OBJECT_NAME": "FENGYUN 1C DEB", "OBJECT_ID": "1999-025CKH", "EPOCH": "2025-12-18T00:40:31.724544", "MEAN_MOTION": 14.12983565, "ECCENTRICITY": 0.0035355, "INCLINATION": 98.9173, "RA_OF_ASC_NODE": 274.5372, "ARG_OF_PERICENTER": 209.4535, "MEAN_ANOMALY": 150.4646, "EPHEMERIS_TYPE": 0, "CLASSIFICATION_TYPE": "U", "NORAD_CAT_ID": 31882, "ELEMENT_SET_NO": 999, "REV_AT_EPOCH": 58711, "BSTAR": 0.0005205777, "MEAN_MOTION_DOT": 9.32e-06, "MEAN_MOTION_DDOT": 0}, "tle": {"line1": "1 31882U 99025CKH 25352.02814496  .00000932  00000+0  52058-3 0  9994", "line2": "2 31882  98.9173 274.5372 0035355 209.4535 150.4646 14.12983565587112"}}, "geometry": {"type": "Point", "coordinates": [99.79735745444142, 7.200692633230657]}}, {"type": "Feature", "properties": {"norad_id": 31883, "name": "FENGYUN 1C DEB", "group": "fengyun-1c-debris", "lat": -68.1947417461785, "lon": -62.822781152776, "alt_km": 704.9944853485758, "timestamp": "2025-12-22T04:03:39.453906+00:00", "meta": {"OBJECT_NAME": "FENGYUN 1C DEB", "OBJECT_ID": "1999-025CKJ", "EPOCH": "2025-12-21T12:01:02.849952", "MEAN_MOTION": 14.67799403, "ECCENTRICITY": 0.01248227, "INCLINATION": 99.0292, "RA_OF_ASC_NODE": 273.0214, "ARG_OF_PERICENTER": 42.4253, "MEAN_ANOMALY": 318.6516, "EPHEMERIS_TYPE": 0, "CLASSIFICATION_TYPE": "U", "NORAD_CAT_ID": 31883, "ELEMENT_SET_NO": 999, "REV_AT_EPOCH": 98107, "BSTAR": 0.00064703541, "MEAN_MOTION_DOT": 4.088e-05, "MEAN_MOTION_DDOT": 0}, "tle": {"line1": "1 31883U 99025CKJ 25355.50072743  .00004088  00000+0  64704-3 0  9999", "line2": "2 31883  99.0292 273.0214 0124822  42.4253 318.6516 14.67799403981079"}}, "geometry": {"type": "Point", "coordinates": [-62.822781152776, -68.1947417461785]}}, {"type": "Feature", "properties": {"norad_id": 31887, "name": "FENGYUN 1C DEB", "group": "fengyun-1c-debris", "lat": 78.96028460047293, "lon": -71.38440356460177, "alt_km": 701.0960183130082, "timestamp": "2025-12-22T04:03:39.453916+00:00", "meta": {"OBJECT_NAME": "FENGYUN 1C DEB", "OBJECT_ID": "1999-025CKN", "EPOCH": "2025-12-17T21:29:51.977472", "MEAN_MOTION": 14.57822744, "ECCENTRICITY": 0.00239553, "INCLINATION": 99.5345, "RA_OF_ASC_NODE": 44.2427, "ARG_OF_PERICENTER": 348.6821, "MEAN_ANOMALY": 11.3832, "EPHEMERIS_TYPE": 0, "CLASSIFICATION_TYPE": "U", "NORAD_CAT_ID": 31887, "ELEMENT_SET_NO": 999, "REV_AT_EPOCH": 96683, "BSTAR": 0.00059528528, "MEAN_MOTION_DOT": 2.676e-05, "MEAN_MOTION_DDOT": 0}, "tle": {"line1": "1 31887U 99025CKN 25351.89574048  .00002676  00000+0  59529-3 0  9996", "line2": "2 31887  99.5345  44.2427 0023955 348.6821  11.3832 14.57822744966837"}}, "geometry": {"type": "Point", "coordinates": [-71.38440356460177, 78.96028460047293]}}, {"type": "Feature", "properties": {"norad_id": 31888, "name": "FENGYUN 1C DEB", "group": "fengyun-1c-debris", "lat": 38.106160421897584, "lon": -84.14657195874334, "alt_km": 786.0489277537627, "timestamp": "2025-12-22T04:03:39.453926+00:00", "meta": {"OBJECT_NAME": "FENGYUN 1C DEB", "OBJECT_ID": "1999-025CKP", "EPOCH": "2025-12-21T06:06:39.816864", "MEAN_MOTION": 14.3400615, "ECCENTRICITY": 0.00173608, "INCLINATION": 99.154, "RA_OF_ASC_NODE": 282.1511, "ARG_OF_PERICENTER": 189.7381, "MEAN_ANOMALY": 170.3468, "EPHEMERIS_TYPE": 0, "CLASSIFICATION_TYPE": "U", "NORAD_CAT_ID": 31888, "ELEMENT_SET_NO": 999, "REV_AT_EPOCH": 95759, "BSTAR": 0.0012753272, "MEAN_MOTION_DOT": 3.519e-05, "MEAN_MOTION_DDOT": 0}, "tle": {"line1": "1 31888U 99025CKP 25355.25462751  .00003519  00000+0  12753-2 0  9992", "line2": "2 31888  99.1540 282.1511 0017360 189.7381 170.3468 14.34006150957590"}}, "geometry": {"type": "Point", "coordinates": [-84.14657195874334, 38.106160421897584]}}, {"type": "Feature", "properties": {"norad_id": 31890, "name": "FENGYUN 1C DEB", "group": "fengyun-1c-debris", "lat": -7.596182705566658, "lon": 8.57255412337428, "alt_km": 900.6123997256809, "timestamp": "2025-12-22T04:03:39.453936+00:00", "meta": {"OBJECT_NAME": "FENGYUN 1C DEB", "OBJECT_ID": "1999-025CKR", "EPOCH": "2025-12-18T06:26:12.801408", "MEAN_MOTION": 14.10135343, "ECCENTRICITY": 0.00717599, "INCLINATION": 98.7186, "RA_OF_ASC_NODE": 3.6189, "ARG_OF_PERICENTER": 226.3843, "MEAN_ANOMALY": 133.1361, "EPHEMERIS_TYPE": 0, "CLASSIFICATION_TYPE": "U", "NORAD_CAT_ID": 31890, "ELEMENT_SET_NO": 999, "REV_AT_EPOCH": 64230, "BSTAR": 0.00011349556, "MEAN_MOTION_DOT": 1.63e-06, "MEAN_MOTION_DDOT": 0}, "tle": {"line1": "1 31890U 99025CKR 25352.26820372  .00000163  00000+0  11350-3 0  9995", "line2": "2 31890  98.7186   3.6189 0071759 226.3843 133.1361 14.10135343642304"}}, "geometry": {"type": "Point", "coordinates": [8.57255412337428, -7.596182705566658]}}, {"type": "Feature", "properties": {"norad_id": 31891, "name": "FENGYUN 1C DEB", "group": "fengyun-1c-debris", "lat": -33.33858690614673, "lon": -175.27306281579618, "alt_km": 920.6864257724092, "timestamp": "2025-12-22T04:03:39.453947+00:00", "meta": {"OBJECT_NAME": "FENGYUN 1C DEB", "OBJECT_ID": "1999-025CKS", "EPOCH": "2025-12-21T18:14:40.116192", "MEAN_MOTION": 13.66212218, "ECCENTRICITY": 0.0225133, "INCLINATION": 99.4019, "RA_OF_ASC_NODE": 10.587, "ARG_OF_PERICENTER": 160.0672, "MEAN_ANOMALY": 200.9444, "EPHEMERIS_TYPE": 0, "CLASSIFICATION_TYPE": "U", "NORAD_CAT_ID": 31891, "ELEMENT_SET_NO": 999, "REV_AT_EPOCH": 92533, "BSTAR": 0.00042203, "MEAN_MOTION_DOT": 3.72e-06, "MEAN_MOTION_DDOT": 0}, "tle": {"line1": "1 31891U 99025CKS 25355.76018653  .00000372  00000+0  42203-3 0  9998", "line2": "2 31891  99.4019  10.5870 0225133 160.0672 200.9444 13.66212218925332"}}, "geometry": {"type": "Point", "coordinates": [-175.27306281579618, -33.33858690614673]}}, {"type": "Feature", "properties": {"norad_id": 31892, "name": "FENGYUN 1C DEB", "group": "fengyun-1c-debris", "lat": 3.748319837478055, "lon": -12.636617033276117, "alt_km": 736.8356553532467, "timestamp": "2025-12-22T04:03:39.453957+00:00", "meta": {"OBJECT_NAME": "FENGYUN 1C DEB", "OBJECT_ID": "1999-025CKT", "EPOCH": "2025-12-06T17:19:53.766912", "MEAN_MOTION": 14.41156255, "ECCENTRICITY": 0.01986119, "INCLINATION": 99.2881, "RA_OF_ASC_NODE": 149.9643, "ARG_OF_PERICENTER": 304.4066, "MEAN_ANOMALY": 53.8482, "EPHEMERIS_TYPE": 0, "CLASSIFICATION_TYPE": "U", "NORAD_CAT_ID": 31892, "ELEMENT_SET_NO": 999, "REV_AT_EPOCH": 64819, "BSTAR": 0.001005312, "MEAN_MOTION_DOT": 4.04e-05, "MEAN_MOTION_DDOT": 0}, "tle": {"line1": "1 31892U 99025CKT 25340.72215008  .00004040  00000+0  10053-2 0  9995", "line2": "2 31892  99.2881 149.9643 0198611 304.4066  53.8482 14.41156255648199"}}, "geometry": {"type": "Point", "coordinates": [-12.636617033276117, 3.748319837478055]}}, {"type": "Feature", "properties": {"norad_id": 31893, "name": "FENGYUN 1C DEB", "group": "fengyun-1c-debris", "lat": -49.125834585621554, "lon": 124.75504660243675, "alt_km": 639.5994038639865, "timestamp": "2025-12-22T04:03:39.453969+00:00", "meta": {"OBJECT_NAME": "FENGYUN 1C DEB", "OBJECT_ID": "1999-025CKU", "EPOCH": "2025-12-21T04:05:40.704864", "MEAN_MOTION": 14.63799874, "ECCENTRICITY": 0.01744274, "INCLINATION": 99.0712, "RA_OF_ASC_NODE": 314.2943, "ARG_OF_PERICENTER": 300.8444, "MEAN_ANOMALY": 71.653, "EPHEMERIS_TYPE": 0, "CLASSIFICATION_TYPE": "U", "NORAD_CAT_ID": 31893, "ELEMENT_SET_NO": 999, "REV_AT_EPOCH": 98528, "BSTAR": 0.00027010853, "MEAN_MOTION_DOT": 1.686e-05, "MEAN_MOTION_DDOT": 0}, "tle": {"line1": "1 31893U 99025CKU 25355.17061001  .00001686  00000+0  27011-3 0  9999", "line2": "2 31893  99.0712 314.2943 0174427 300.8444  71.6530 14.63799874985280"}}, "geometry": {"type": "Point", "coordinates": [124.75504660243675, -49.125834585621554]}}, {"type": "Feature", "properties": {"norad_id": 31895, "name": "FENGYUN 1C DEB", "group": "fengyun-1c-debris", "lat": -6.080402369102021, "lon": 25.61952103030428, "alt_km": 1125.8641678430276, "timestamp": "2025-12-22T04:03:39.454234+00:00", "meta": {"OBJECT_NAME": "FENGYUN 1C DEB", "OBJECT_ID": "1999-025CKW", "EPOCH": "2025-12-21T08:53:21.221664", "MEAN_MOTION": 13.75563213, "ECCENTRICITY": 0.02271801, "INCLINATION": 99.0924, "RA_OF_ASC_NODE": 23.8796, "ARG_OF_PERICENTER": 206.8551, "MEAN_ANOMALY": 152.0693, "EPHEMERIS_TYPE": 0, "CLASSIFICATION_TYPE": "U", "NORAD_CAT_ID": 31895, "ELEMENT_SET_NO": 999, "REV_AT_EPOCH": 62015, "BSTAR": 0.0016724146, "MEAN_MOTION_DOT": 1.904e-05, "MEAN_MOTION_DDOT": 0}, "tle": {"line1": "1 31895U 99025CKW 25355.37038451  .00001904  00000+0  16724-2 0  9997", "line2": "2 31895  99.0924  23.8796 0227180 206.8551 152.0693 13.75563213620159"}}, "geometry": {"type": "Point", "coordinates": [25.61952103030428, -6.080402369102021]}}]}